STARLINK-30701
1 57950U 23148R   25312.74026179  .00000347  00000+0  23832-4 0  9998
2 57950  53.1600 226.1191 0001183 101.9774 258.1359 15.30191206119908